H-2A R/B                
1 28932U 06002B   26086.95097688  .00011420  00000+0  56445-3 0  9990
2 28932  98.2444 235.5545 0052390 178.5769 181.5621 15.16813942 97200
RESURS-DK 1             
1 29228U 06021A   26086.98329291  .00002383  00000+0  14129-3 0  9992
2 29228  69.9337 189.7014 0001121  56.5775 303.5498 15.12858464 90298
CZ-4B R/B               
1 29507U 06046C   26087.07851385  .00004724  00000+0  23882-3 0  9991
2 29507  97.5560 131.9368 0032665 201.2425 158.7454 15.17083277 62830
CZ-2C R/B               
1 31114U 07010B   26087.18385653  .00000141  00000+0  84032-4 0  9996
2 31114  98.3998 199.5374 0058057 239.8140 119.7279 14.20252737982343
COSMO-SKYMED 1          
1 31598U 07023A   26087.18446705  .00003315  00000+0  29578-3 0  9991
2 31598  97.8877 278.3674 0000949  98.4695 261.6633 14.96664822 17670
COSMOS 2428             
1 31792U 07029A   26087.22459608 -.00000035  00000+0  67935-5 0  9992
2 31792  70.9434 164.4427 0009691 258.0073 101.9962 14.12948349966711
SL-16 R/B               
1 31793U 07029B   26087.15785280  .00000055  00000+0  53241-4 0  9998
2 31793  70.9748 133.5649 0002678 277.6595 143.1741 14.14843392967984
KORONAS-FOTON           
1 33504U 09003A   26087.17539406  .00015589  00000+0  34251-3 0  9990
2 33504  82.4277 256.6494 0011787  89.9015 270.3583 15.43805680948592
CZ-2C R/B               
1 37731U 11030B   26087.11143892  .00001458  00000+0  18984-3 0  9998
2 37731  97.8575  44.0103 0051134 291.1509  78.8287 14.81285073792824
H-2A R/B                
1 38341U 12025E   26086.93078366  .00003597  00000+0  32690-3 0  9999
2 38341  98.4761  55.4424 0042712 252.5555 107.0992 14.95293499750943
SHIJIAN-16 (SJ-16)      
1 39358U 13057A   26087.19832308  .00002133  00000+0  21053-3 0  9993
2 39358  74.9722 150.0511 0015247  64.4061 295.8701 14.92419847674260
SL-4 R/B                
1 39679U 14021B   26086.73990852  .00018474  00000+0  39896-3 0  9998
2 39679  51.6043 249.1796 0095735 168.7371 191.5787 15.39787110659050
