CCSDS_OMM_VERS = 2.0
CREATION_DATE  = 
ORIGINATOR     = 

OBJECT_NAME    = H-2A R/B
OBJECT_ID      = 2006-002B
CENTER_NAME    = EARTH
REF_FRAME      = TEME
TIME_SYSTEM    = UTC
MEAN_ELEMENT_THEORY = SGP/SGP4

EPOCH          = 2026-03-27T22:49:24.402432
MEAN_MOTION    = 15.16813942
ECCENTRICITY   = .005239
INCLINATION    = 98.2444
RA_OF_ASC_NODE = 235.5545
ARG_OF_PERICENTER = 178.5769
MEAN_ANOMALY   = 181.5621

EPHEMERIS_TYPE = 0
CLASSIFICATION_TYPE = U
NORAD_CAT_ID   = 28932
ELEMENT_SET_NO = 999
REV_AT_EPOCH   = 9720
BSTAR          = .56445E-3
MEAN_MOTION_DOT = .1142E-3
MEAN_MOTION_DDOT = 0

CCSDS_OMM_VERS = 2.0
CREATION_DATE  = 
ORIGINATOR     = 

OBJECT_NAME    = RESURS-DK 1
OBJECT_ID      = 2006-021A
CENTER_NAME    = EARTH
REF_FRAME      = TEME
TIME_SYSTEM    = UTC
MEAN_ELEMENT_THEORY = SGP/SGP4

EPOCH          = 2026-03-27T23:35:56.507424
MEAN_MOTION    = 15.12858464
ECCENTRICITY   = .0001121
INCLINATION    = 69.9337
RA_OF_ASC_NODE = 189.7014
ARG_OF_PERICENTER = 56.5775
MEAN_ANOMALY   = 303.5498

EPHEMERIS_TYPE = 0
CLASSIFICATION_TYPE = U
NORAD_CAT_ID   = 29228
ELEMENT_SET_NO = 999
REV_AT_EPOCH   = 9029
BSTAR          = .14129E-3
MEAN_MOTION_DOT = .2383E-4
MEAN_MOTION_DDOT = 0

CCSDS_OMM_VERS = 2.0
CREATION_DATE  = 
ORIGINATOR     = 

OBJECT_NAME    = CZ-4B R/B
OBJECT_ID      = 2006-046C
CENTER_NAME    = EARTH
REF_FRAME      = TEME
TIME_SYSTEM    = UTC
MEAN_ELEMENT_THEORY = SGP/SGP4

EPOCH          = 2026-03-28T01:53:03.596640
MEAN_MOTION    = 15.17083277
ECCENTRICITY   = .0032665
INCLINATION    = 97.5560
RA_OF_ASC_NODE = 131.9368
ARG_OF_PERICENTER = 201.2425
MEAN_ANOMALY   = 158.7454

EPHEMERIS_TYPE = 0
CLASSIFICATION_TYPE = U
NORAD_CAT_ID   = 29507
ELEMENT_SET_NO = 999
REV_AT_EPOCH   = 6283
BSTAR          = .23882E-3
MEAN_MOTION_DOT = .4724E-4
MEAN_MOTION_DDOT = 0

CCSDS_OMM_VERS = 2.0
CREATION_DATE  = 
ORIGINATOR     = 

OBJECT_NAME    = CZ-2C R/B
OBJECT_ID      = 2007-010B
CENTER_NAME    = EARTH
REF_FRAME      = TEME
TIME_SYSTEM    = UTC
MEAN_ELEMENT_THEORY = SGP/SGP4

EPOCH          = 2026-03-28T04:24:45.204192
MEAN_MOTION    = 14.20252737
ECCENTRICITY   = .0058057
INCLINATION    = 98.3998
RA_OF_ASC_NODE = 199.5374
ARG_OF_PERICENTER = 239.8140
MEAN_ANOMALY   = 119.7279

EPHEMERIS_TYPE = 0
CLASSIFICATION_TYPE = U
NORAD_CAT_ID   = 31114
ELEMENT_SET_NO = 999
REV_AT_EPOCH   = 98234
BSTAR          = .84032E-4
MEAN_MOTION_DOT = .141E-5
MEAN_MOTION_DDOT = 0

CCSDS_OMM_VERS = 2.0
CREATION_DATE  = 
ORIGINATOR     = 

OBJECT_NAME    = COSMO-SKYMED 1
OBJECT_ID      = 2007-023A
CENTER_NAME    = EARTH
REF_FRAME      = TEME
TIME_SYSTEM    = UTC
MEAN_ELEMENT_THEORY = SGP/SGP4

EPOCH          = 2026-03-28T04:25:37.953120
MEAN_MOTION    = 14.96664822
ECCENTRICITY   = .0000949
INCLINATION    = 97.8877
RA_OF_ASC_NODE = 278.3674
ARG_OF_PERICENTER = 98.4695
MEAN_ANOMALY   = 261.6633

EPHEMERIS_TYPE = 0
CLASSIFICATION_TYPE = U
NORAD_CAT_ID   = 31598
ELEMENT_SET_NO = 999
REV_AT_EPOCH   = 1767
BSTAR          = .29578E-3
MEAN_MOTION_DOT = .3315E-4
MEAN_MOTION_DDOT = 0

CCSDS_OMM_VERS = 2.0
CREATION_DATE  = 
ORIGINATOR     = 

OBJECT_NAME    = COSMOS 2428
OBJECT_ID      = 2007-029A
CENTER_NAME    = EARTH
REF_FRAME      = TEME
TIME_SYSTEM    = UTC
MEAN_ELEMENT_THEORY = SGP/SGP4

EPOCH          = 2026-03-28T05:23:25.101312
MEAN_MOTION    = 14.12948349
ECCENTRICITY   = .0009691
INCLINATION    = 70.9434
RA_OF_ASC_NODE = 164.4427
ARG_OF_PERICENTER = 258.0073
MEAN_ANOMALY   = 101.9962

EPHEMERIS_TYPE = 0
CLASSIFICATION_TYPE = U
NORAD_CAT_ID   = 31792
ELEMENT_SET_NO = 999
REV_AT_EPOCH   = 96671
BSTAR          = .67935E-5
MEAN_MOTION_DOT = -.35E-6
MEAN_MOTION_DDOT = 0

CCSDS_OMM_VERS = 2.0
CREATION_DATE  = 
ORIGINATOR     = 

OBJECT_NAME    = SL-16 R/B
OBJECT_ID      = 2007-029B
CENTER_NAME    = EARTH
REF_FRAME      = TEME
TIME_SYSTEM    = UTC
MEAN_ELEMENT_THEORY = SGP/SGP4

EPOCH          = 2026-03-28T03:47:18.481920
MEAN_MOTION    = 14.14843392
ECCENTRICITY   = .0002678
INCLINATION    = 70.9748
RA_OF_ASC_NODE = 133.5649
ARG_OF_PERICENTER = 277.6595
MEAN_ANOMALY   = 143.1741

EPHEMERIS_TYPE = 0
CLASSIFICATION_TYPE = U
NORAD_CAT_ID   = 31793
ELEMENT_SET_NO = 999
REV_AT_EPOCH   = 96798
BSTAR          = .53241E-4
MEAN_MOTION_DOT = .55E-6
MEAN_MOTION_DDOT = 0

CCSDS_OMM_VERS = 2.0
CREATION_DATE  = 
ORIGINATOR     = 

OBJECT_NAME    = KORONAS-FOTON
OBJECT_ID      = 2009-003A
CENTER_NAME    = EARTH
REF_FRAME      = TEME
TIME_SYSTEM    = UTC
MEAN_ELEMENT_THEORY = SGP/SGP4

EPOCH          = 2026-03-28T04:12:34.046784
MEAN_MOTION    = 15.43805680
ECCENTRICITY   = .0011787
INCLINATION    = 82.4277
RA_OF_ASC_NODE = 256.6494
ARG_OF_PERICENTER = 89.9015
MEAN_ANOMALY   = 270.3583

EPHEMERIS_TYPE = 0
CLASSIFICATION_TYPE = U
NORAD_CAT_ID   = 33504
ELEMENT_SET_NO = 999
REV_AT_EPOCH   = 94859
BSTAR          = .34251E-3
MEAN_MOTION_DOT = .15589E-3
MEAN_MOTION_DDOT = 0

CCSDS_OMM_VERS = 2.0
CREATION_DATE  = 
ORIGINATOR     = 

OBJECT_NAME    = CZ-2C R/B
OBJECT_ID      = 2011-030B
CENTER_NAME    = EARTH
REF_FRAME      = TEME
TIME_SYSTEM    = UTC
MEAN_ELEMENT_THEORY = SGP/SGP4

EPOCH          = 2026-03-28T02:40:28.322688
MEAN_MOTION    = 14.81285073
ECCENTRICITY   = .0051134
INCLINATION    = 97.8575
RA_OF_ASC_NODE = 44.0103
ARG_OF_PERICENTER = 291.1509
MEAN_ANOMALY   = 78.8287

EPHEMERIS_TYPE = 0
CLASSIFICATION_TYPE = U
NORAD_CAT_ID   = 37731
ELEMENT_SET_NO = 999
REV_AT_EPOCH   = 79282
BSTAR          = .18984E-3
MEAN_MOTION_DOT = .1458E-4
MEAN_MOTION_DDOT = 0

CCSDS_OMM_VERS = 2.0
CREATION_DATE  = 
ORIGINATOR     = 

OBJECT_NAME    = H-2A R/B
OBJECT_ID      = 2012-025E
CENTER_NAME    = EARTH
REF_FRAME      = TEME
TIME_SYSTEM    = UTC
MEAN_ELEMENT_THEORY = SGP/SGP4

EPOCH          = 2026-03-27T22:20:19.708224
MEAN_MOTION    = 14.95293499
ECCENTRICITY   = .0042712
INCLINATION    = 98.4761
RA_OF_ASC_NODE = 55.4424
ARG_OF_PERICENTER = 252.5555
MEAN_ANOMALY   = 107.0992

EPHEMERIS_TYPE = 0
CLASSIFICATION_TYPE = U
NORAD_CAT_ID   = 38341
ELEMENT_SET_NO = 999
REV_AT_EPOCH   = 75094
BSTAR          = .3269E-3
MEAN_MOTION_DOT = .3597E-4
MEAN_MOTION_DDOT = 0

CCSDS_OMM_VERS = 2.0
CREATION_DATE  = 
ORIGINATOR     = 

OBJECT_NAME    = SHIJIAN-16 (SJ-16)
OBJECT_ID      = 2013-057A
CENTER_NAME    = EARTH
REF_FRAME      = TEME
TIME_SYSTEM    = UTC
MEAN_ELEMENT_THEORY = SGP/SGP4

EPOCH          = 2026-03-28T04:45:35.114112
MEAN_MOTION    = 14.92419847
ECCENTRICITY   = .0015247
INCLINATION    = 74.9722
RA_OF_ASC_NODE = 150.0511
ARG_OF_PERICENTER = 64.4061
MEAN_ANOMALY   = 295.8701

EPHEMERIS_TYPE = 0
CLASSIFICATION_TYPE = U
NORAD_CAT_ID   = 39358
ELEMENT_SET_NO = 999
REV_AT_EPOCH   = 67426
BSTAR          = .21053E-3
MEAN_MOTION_DOT = .2133E-4
MEAN_MOTION_DDOT = 0

CCSDS_OMM_VERS = 2.0
CREATION_DATE  = 
ORIGINATOR     = 

OBJECT_NAME    = SL-4 R/B
OBJECT_ID      = 2014-021B
CENTER_NAME    = EARTH
REF_FRAME      = TEME
TIME_SYSTEM    = UTC
MEAN_ELEMENT_THEORY = SGP/SGP4

EPOCH          = 2026-03-27T17:45:28.096128
MEAN_MOTION    = 15.39787110
ECCENTRICITY   = .00957359
INCLINATION    = 51.6043
RA_OF_ASC_NODE = 249.1796
ARG_OF_PERICENTER = 168.7371
MEAN_ANOMALY   = 191.5787

EPHEMERIS_TYPE = 0
CLASSIFICATION_TYPE = U
NORAD_CAT_ID   = 39679
ELEMENT_SET_NO = 999
REV_AT_EPOCH   = 65905
BSTAR          = .3989564E-3
MEAN_MOTION_DOT = .18474E-3
MEAN_MOTION_DDOT = 0

